start=new Date('2021-08-27T00:00:00.000Z').valueOf();
sats=[{"FILE":"3103480","SITE":"AFETR","GP_ID":"183497356","MEAN_ANOMALY":"324.0232","ARG_OF_PERICENTER":"36.0796","ECCENTRICITY":"0.00005740","NORAD_CAT_ID":"47598","MEAN_MOTION_DDOT":"0.0000000000000","ELEMENT_SET_NO":"999","EPOCH":"2021-08-26T18:02:55.716000","MEAN_MOTION_DOT":"0.00000431","DECAY_DATE":null,"OBJECT_TYPE":"PAYLOAD","MEAN_ELEMENT_THEORY":"SGP4","TLE_LINE1":"1 47598U 21009BC  21238.75203375  .00000431  00000-0  47808-4 0  9992","SEMIMAJOR_AXIS":"6925.343","LAUNCH_DATE":"2021-02-04","RCS_SIZE":"LARGE","REF_FRAME":"TEME","CLASSIFICATION_TYPE":"U","TLE_LINE2":"2 47598  53.0801 245.2886 0000574  36.0796 324.0232 15.06401891 31357","PERIOD":"95.592","EPHEMERIS_TYPE":"0","APOAPSIS":"547.605","OBJECT_NAME":"STARLINK-2003","INCLINATION":"53.0801","COUNTRY_CODE":"US","OBJECT_ID":"2021-009BC","TIME_SYSTEM":"UTC","BSTAR":"0.00004780800000","REV_AT_EPOCH":"3135","RA_OF_ASC_NODE":"245.2886","MEAN_MOTION":"15.06401891","CENTER_NAME":"EARTH","PERIAPSIS":"546.810"},{"OBJECT_TYPE":"PAYLOAD","DECAY_DATE":null,"MEAN_MOTION_DOT":"0.00000570","EPOCH":"2021-08-26T06:39:32.134464","ELEMENT_SET_NO":"999","MEAN_MOTION_DDOT":"0.0000000000000","NORAD_CAT_ID":"47599","ARG_OF_PERICENTER":"33.7353","ECCENTRICITY":"0.00008750","FILE":"3103463","GP_ID":"183473880","SITE":"AFETR","MEAN_ANOMALY":"326.3692","EPHEMERIS_TYPE":"0","APOAPSIS":"547.798","PERIOD":"95.592","CLASSIFICATION_TYPE":"U","TLE_LINE2":"2 47599  53.0553 237.5266 0000875  33.7353 326.3692 15.06406873 31412","RCS_SIZE":"LARGE","REF_FRAME":"TEME","SEMIMAJOR_AXIS":"6925.327","LAUNCH_DATE":"2021-02-04","MEAN_ELEMENT_THEORY":"SGP4","TLE_LINE1":"1 47599U 21009BD  21238.27745526  .00000570  00000-0  57123-4 0  9994","BSTAR":"0.00005712300000","REV_AT_EPOCH":"3141","TIME_SYSTEM":"UTC","OBJECT_ID":"2021-009BD","COUNTRY_CODE":"US","INCLINATION":"53.0553","OBJECT_NAME":"STARLINK-2004","CENTER_NAME":"EARTH","PERIAPSIS":"546.587","MEAN_MOTION":"15.06406873","RA_OF_ASC_NODE":"237.5266"},{"TIME_SYSTEM":"UTC","OBJECT_ID":"2021-009BE","REV_AT_EPOCH":"3148","BSTAR":"0.00009046300000","INCLINATION":"53.0703","OBJECT_NAME":"STARLINK-2005","COUNTRY_CODE":"US","MEAN_MOTION":"15.06393770","PERIAPSIS":"540.451","CENTER_NAME":"EARTH","RA_OF_ASC_NODE":"235.5551","MEAN_MOTION_DOT":"0.00001064","EPOCH":"2021-08-26T16:53:54.697920","OBJECT_TYPE":"PAYLOAD","DECAY_DATE":null,"ECCENTRICITY":"0.00097920","ARG_OF_PERICENTER":"21.7686","GP_ID":"183498358","MEAN_ANOMALY":"338.3718","SITE":"AFETR","FILE":"3103480","ELEMENT_SET_NO":"999","MEAN_MOTION_DDOT":"0.0000000000000","NORAD_CAT_ID":"47600","TLE_LINE2":"2 47600  53.0703 235.5551 0009792  21.7686 338.3718 15.06393770 31480","CLASSIFICATION_TYPE":"U","REF_FRAME":"TEME","RCS_SIZE":"LARGE","APOAPSIS":"554.014","EPHEMERIS_TYPE":"0","PERIOD":"95.593","TLE_LINE1":"1 47600U 21009BE  21238.70410530  .00001064  00000-0  90463-4 0  9992","MEAN_ELEMENT_THEORY":"SGP4","LAUNCH_DATE":"2021-02-04","SEMIMAJOR_AXIS":"6925.368"},{"RA_OF_ASC_NODE":"236.6173","CENTER_NAME":"EARTH","PERIAPSIS":"546.847","MEAN_MOTION":"15.06398370","COUNTRY_CODE":"US","INCLINATION":"53.0549","OBJECT_NAME":"STARLINK-2006","BSTAR":"0.00007639000000","REV_AT_EPOCH":"3144","TIME_SYSTEM":"UTC","OBJECT_ID":"2021-009BF","SEMIMAJOR_AXIS":"6925.354","LAUNCH_DATE":"2021-02-04","MEAN_ELEMENT_THEORY":"SGP4","TLE_LINE1":"1 47601U 21009BF  21238.48020250  .00000857  00000-0  76390-4 0  9996","EPHEMERIS_TYPE":"0","APOAPSIS":"547.590","PERIOD":"95.592","TLE_LINE2":"2 47601  53.0549 236.6173 0000536  24.9397 335.1618 15.06398370 31443","CLASSIFICATION_TYPE":"U","RCS_SIZE":"LARGE","REF_FRAME":"TEME","MEAN_MOTION_DDOT":"0.0000000000000","ELEMENT_SET_NO":"999","NORAD_CAT_ID":"47601","ARG_OF_PERICENTER":"24.9397","ECCENTRICITY":"0.00005360","FILE":"3103463","GP_ID":"183474882","SITE":"AFETR","MEAN_ANOMALY":"335.1618","OBJECT_TYPE":"PAYLOAD","DECAY_DATE":null,"MEAN_MOTION_DOT":"0.00000857","EPOCH":"2021-08-26T11:31:29.496000"},{"TLE_LINE1":"1 47602U 21009BG  21238.43506021  .00000501  00000-0  52498-4 0  9996","MEAN_ELEMENT_THEORY":"SGP4","SEMIMAJOR_AXIS":"6925.394","LAUNCH_DATE":"2021-02-04","CLASSIFICATION_TYPE":"U","TLE_LINE2":"2 47602  53.0512 246.8435 0000208  30.1421 329.9580 15.06385075 31291","RCS_SIZE":"LARGE","REF_FRAME":"TEME","EPHEMERIS_TYPE":"0","APOAPSIS":"547.403","PERIOD":"95.593","ARG_OF_PERICENTER":"30.1421","ECCENTRICITY":"0.00002080","FILE":"3103463","MEAN_ANOMALY":"329.9580","GP_ID":"183474629","SITE":"AFETR","MEAN_MOTION_DDOT":"0.0000000000000","ELEMENT_SET_NO":"999","NORAD_CAT_ID":"47602","MEAN_MOTION_DOT":"0.00000501","EPOCH":"2021-08-26T10:26:29.202144","OBJECT_TYPE":"PAYLOAD","DECAY_DATE":null,"RA_OF_ASC_NODE":"246.8435","MEAN_MOTION":"15.06385075","CENTER_NAME":"EARTH","PERIAPSIS":"547.115","INCLINATION":"53.0512","OBJECT_NAME":"STARLINK-2007","COUNTRY_CODE":"US","TIME_SYSTEM":"UTC","OBJECT_ID":"2021-009BG","BSTAR":"0.00005249800000","REV_AT_EPOCH":"3129"},{"SEMIMAJOR_AXIS":"6925.365","LAUNCH_DATE":"2021-02-04","TLE_LINE1":"1 47603U 21009BH  21238.51337549  .00000400  00000-0  45759-4 0  9993","MEAN_ELEMENT_THEORY":"SGP4","EPHEMERIS_TYPE":"0","APOAPSIS":"547.712","PERIOD":"95.592","TLE_LINE2":"2 47603  53.0544 276.4709 0000695  83.4077 276.6991 15.06394475 30880","CLASSIFICATION_TYPE":"U","RCS_SIZE":"LARGE","REF_FRAME":"TEME","MEAN_MOTION_DDOT":"0.0000000000000","ELEMENT_SET_NO":"999","NORAD_CAT_ID":"47603","ARG_OF_PERICENTER":"83.4077","ECCENTRICITY":"0.00006950","FILE":"3103463","MEAN_ANOMALY":"276.6991","GP_ID":"183473381","SITE":"AFETR","OBJECT_TYPE":"PAYLOAD","DECAY_DATE":null,"MEAN_MOTION_DOT":"0.00000400","EPOCH":"2021-08-26T12:19:15.642336","RA_OF_ASC_NODE":"276.4709","CENTER_NAME":"EARTH","PERIAPSIS":"546.749","MEAN_MOTION":"15.06394475","COUNTRY_CODE":"US","INCLINATION":"53.0544","OBJECT_NAME":"STARLINK-2008","BSTAR":"0.00004575900000","REV_AT_EPOCH":"3088","TIME_SYSTEM":"UTC","OBJECT_ID":"2021-009BH"},{"TIME_SYSTEM":"UTC","OBJECT_ID":"2021-009BJ","REV_AT_EPOCH":"3131","BSTAR":"-0.00004860400000","INCLINATION":"53.0550","OBJECT_NAME":"STARLINK-2021","COUNTRY_CODE":"US","MEAN_MOTION":"15.06391522","PERIAPSIS":"546.895","CENTER_NAME":"EARTH","RA_OF_ASC_NODE":"246.5014","MEAN_MOTION_DOT":"-0.00001005","EPOCH":"2021-08-26T12:12:36.952128","OBJECT_TYPE":"PAYLOAD","DECAY_DATE":null,"ECCENTRICITY":"0.00004970","ARG_OF_PERICENTER":"13.8203","GP_ID":"183474131","SITE":"AFETR","MEAN_ANOMALY":"346.2800","FILE":"3103463","MEAN_MOTION_DDOT":"0.0000000000000","ELEMENT_SET_NO":"999","NORAD_CAT_ID":"47604","TLE_LINE2":"2 47604  53.0550 246.5014 0000497  13.8203 346.2800 15.06391522 31315","CLASSIFICATION_TYPE":"U","REF_FRAME":"TEME","RCS_SIZE":"LARGE","APOAPSIS":"547.584","EPHEMERIS_TYPE":"0","PERIOD":"95.593","MEAN_ELEMENT_THEORY":"SGP4","TLE_LINE1":"1 47604U 21009BJ  21238.50876102 -.00001005  00000-0 -48604-4 0  9992","LAUNCH_DATE":"2021-02-04","SEMIMAJOR_AXIS":"6925.375"},{"REF_FRAME":"TEME","RCS_SIZE":"LARGE","TLE_LINE2":"2 47605  53.0486 246.8366 0000430 349.6887  10.4093 15.06387160 31296","CLASSIFICATION_TYPE":"U","PERIOD":"95.593","APOAPSIS":"547.551","EPHEMERIS_TYPE":"0","MEAN_ELEMENT_THEORY":"SGP4","TLE_LINE1":"1 47605U 21009BK  21238.43874203  .00000540  00000-0  55136-4 0  9994","LAUNCH_DATE":"2021-02-04","SEMIMAJOR_AXIS":"6925.388","EPOCH":"2021-08-26T10:31:47.311392","MEAN_MOTION_DOT":"0.00000540","DECAY_DATE":null,"OBJECT_TYPE":"PAYLOAD","GP_ID":"183474383","MEAN_ANOMALY":"10.4093","SITE":"AFETR","FILE":"3103463","ECCENTRICITY":"0.00004300","ARG_OF_PERICENTER":"349.6887","NORAD_CAT_ID":"47605","MEAN_MOTION_DDOT":"0.0000000000000","ELEMENT_SET_NO":"999","MEAN_MOTION":"15.06387160","PERIAPSIS":"546.955","CENTER_NAME":"EARTH","RA_OF_ASC_NODE":"246.8366","OBJECT_ID":"2021-009BK","TIME_SYSTEM":"UTC","REV_AT_EPOCH":"3129","BSTAR":"0.00005513600000","OBJECT_NAME":"STARLINK-2023","INCLINATION":"53.0486","COUNTRY_CODE":"US"},{"EPHEMERIS_TYPE":"0","APOAPSIS":"547.778","PERIOD":"95.593","CLASSIFICATION_TYPE":"U","TLE_LINE2":"2 47606  53.0536 245.5790 0000775  28.7070 331.3961 15.06390919 31342","RCS_SIZE":"LARGE","REF_FRAME":"TEME","SEMIMAJOR_AXIS":"6925.376","LAUNCH_DATE":"2021-02-04","TLE_LINE1":"1 47606U 21009BL  21238.71149999  .00000535  00000-0  54792-4 0  9994","MEAN_ELEMENT_THEORY":"SGP4","OBJECT_TYPE":"PAYLOAD","DECAY_DATE":null,"MEAN_MOTION_DOT":"0.00000535","EPOCH":"2021-08-26T17:04:33.599136","ELEMENT_SET_NO":"999","MEAN_MOTION_DDOT":"0.0000000000000","NORAD_CAT_ID":"47606","ARG_OF_PERICENTER":"28.7070","ECCENTRICITY":"0.00007750","FILE":"3103480","GP_ID":"183497357","SITE":"AFETR","MEAN_ANOMALY":"331.3961","CENTER_NAME":"EARTH","PERIAPSIS":"546.705","MEAN_MOTION":"15.06390919","RA_OF_ASC_NODE":"245.5790","BSTAR":"0.00005479200000","REV_AT_EPOCH":"3134","TIME_SYSTEM":"UTC","OBJECT_ID":"2021-009BL","COUNTRY_CODE":"US","INCLINATION":"53.0536","OBJECT_NAME":"STARLINK-2024"},{"REV_AT_EPOCH":"3134","BSTAR":"0.00012597000000","TIME_SYSTEM":"UTC","OBJECT_ID":"2021-009BM","COUNTRY_CODE":"US","INCLINATION":"53.0548","OBJECT_NAME":"STARLINK-2025","PERIAPSIS":"546.764","CENTER_NAME":"EARTH","MEAN_MOTION":"15.06385428","RA_OF_ASC_NODE":"245.4018","OBJECT_TYPE":"PAYLOAD","DECAY_DATE":null,"MEAN_MOTION_DOT":"0.00001595","EPOCH":"2021-08-26T18:08:15.812448","MEAN_MOTION_DDOT":"0.0000000000000","ELEMENT_SET_NO":"999","NORAD_CAT_ID":"47607","ECCENTRICITY":"0.00007140","ARG_OF_PERICENTER":"55.3716","GP_ID":"183497609","MEAN_ANOMALY":"304.7340","SITE":"AFETR","FILE":"3103480","APOAPSIS":"547.753","EPHEMERIS_TYPE":"0","PERIOD":"95.593","CLASSIFICATION_TYPE":"U","TLE_LINE2":"2 47607  53.0548 245.4018 0000714  55.3716 304.7340 15.06385428 31348","REF_FRAME":"TEME","RCS_SIZE":"LARGE","LAUNCH_DATE":"2021-02-04","SEMIMAJOR_AXIS":"6925.393","TLE_LINE1":"1 47607U 21009BM  21238.75573857  .00001595  00000-0  12597-3 0  9996","MEAN_ELEMENT_THEORY":"SGP4"}];
